[
  {
    "OBJECT_NAME": "METEOSAT-10 (MSG-3)",
    "OBJECT_ID": "2012-035B",
    "EPOCH": "2025-06-21T08:04:38.460000",
    "MEAN_MOTION": 1.00275636,
    "ECCENTRICITY": 6.06e-05,
    "INCLINATION": 3.8167,
    "RA_OF_ASC_NODE": 62.0676,
    "ARG_OF_PERICENTER": 65.1811,
    "MEAN_ANOMALY": 263.919,
    "EPHEMERIS_TYPE": 0,
    "CLASSIFICATION_TYPE": "U",
    "NORAD_CAT_ID": 38552,
    "ELEMENT_SET_NO": 999,
    "REV_AT_EPOCH": 4723,
    "BSTAR": 0,
    "MEAN_MOTION_DOT": 3e-08,
    "MEAN_MOTION_DDOT": 0
  },
  {
    "OBJECT_NAME": "METOP-B",
    "OBJECT_ID": "2012-049A",
    "EPOCH": "2025-06-21T20:32:49.963776",
    "MEAN_MOTION": 14.21466299,
    "ECCENTRICITY": 7.66e-05,
    "INCLINATION": 98.5762,
    "RA_OF_ASC_NODE": 226.7277,
    "ARG_OF_PERICENTER": 54.6568,
    "MEAN_ANOMALY": 305.4681,
    "EPHEMERIS_TYPE": 0,
    "CLASSIFICATION_TYPE": "U",
    "NORAD_CAT_ID": 38771,
    "ELEMENT_SET_NO": 999,
    "REV_AT_EPOCH": 66206,
    "BSTAR": 5.4743e-05,
    "MEAN_MOTION_DOT": 7.7e-07,
    "MEAN_MOTION_DDOT": 0
  },
  {
    "OBJECT_NAME": "INSAT-3D",
    "OBJECT_ID": "2013-038B",
    "EPOCH": "2025-06-21T20:38:38.708736",
    "MEAN_MOTION": 1.00268249,
    "ECCENTRICITY": 0.0001086,
    "INCLINATION": 0.9939,
    "RA_OF_ASC_NODE": 87.4808,
    "ARG_OF_PERICENTER": 0.1335,
    "MEAN_ANOMALY": 261.8618,
    "EPHEMERIS_TYPE": 0,
    "CLASSIFICATION_TYPE": "U",
    "NORAD_CAT_ID": 39216,
    "ELEMENT_SET_NO": 999,
    "REV_AT_EPOCH": 4369,
    "BSTAR": 0,
    "MEAN_MOTION_DOT": -3.31e-06,
    "MEAN_MOTION_DDOT": 0
  },
  {
    "OBJECT_NAME": "FENGYUN 3C",
    "OBJECT_ID": "2013-052A",
    "EPOCH": "2025-06-21T21:00:58.447872",
    "MEAN_MOTION": 14.15630582,
    "ECCENTRICITY": 0.0014397,
    "INCLINATION": 98.4546,
    "RA_OF_ASC_NODE": 159.2331,
    "ARG_OF_PERICENTER": 345.7543,
    "MEAN_ANOMALY": 14.3224,
    "EPHEMERIS_TYPE": 0,
    "CLASSIFICATION_TYPE": "U",
    "NORAD_CAT_ID": 39260,
    "ELEMENT_SET_NO": 999,
    "REV_AT_EPOCH": 60765,
    "BSTAR": 5.677e-05,
    "MEAN_MOTION_DOT": 7e-07,
    "MEAN_MOTION_DDOT": 0
  },
  {
    "OBJECT_NAME": "METEOR-M 2",
    "OBJECT_ID": "2014-037A",
    "EPOCH": "2025-06-21T20:52:19.386048",
    "MEAN_MOTION": 14.21302654,
    "ECCENTRICITY": 0.0006039,
    "INCLINATION": 98.4681,
    "RA_OF_ASC_NODE": 157.317,
    "ARG_OF_PERICENTER": 15.8864,
    "MEAN_ANOMALY": 344.2502,
    "EPHEMERIS_TYPE": 0,
    "CLASSIFICATION_TYPE": "U",
    "NORAD_CAT_ID": 40069,
    "ELEMENT_SET_NO": 999,
    "REV_AT_EPOCH": 56813,
    "BSTAR": 5.6733e-05,
    "MEAN_MOTION_DOT": 8.2e-07,
    "MEAN_MOTION_DDOT": 0
  },
  {
    "OBJECT_NAME": "HIMAWARI-8",
    "OBJECT_ID": "2014-060A",
    "EPOCH": "2025-06-21T12:06:55.432800",
    "MEAN_MOTION": 1.00269944,
    "ECCENTRICITY": 9.31e-05,
    "INCLINATION": 0.0294,
    "RA_OF_ASC_NODE": 96.9468,
    "ARG_OF_PERICENTER": 51.4905,
    "MEAN_ANOMALY": 83.8917,
    "EPHEMERIS_TYPE": 0,
    "CLASSIFICATION_TYPE": "U",
    "NORAD_CAT_ID": 40267,
    "ELEMENT_SET_NO": 999,
    "REV_AT_EPOCH": 3913,
    "BSTAR": 0,
    "MEAN_MOTION_DOT": -2.66e-06,
    "MEAN_MOTION_DDOT": 0
  },
  {
    "OBJECT_NAME": "FENGYUN 2G",
    "OBJECT_ID": "2014-090A",
    "EPOCH": "2025-06-20T19:23:27.970368",
    "MEAN_MOTION": 1.00271345,
    "ECCENTRICITY": 0.000396,
    "INCLINATION": 4.7228,
    "RA_OF_ASC_NODE": 77.2274,
    "ARG_OF_PERICENTER": 143.8161,
    "MEAN_ANOMALY": 78.7621,
    "EPHEMERIS_TYPE": 0,
    "CLASSIFICATION_TYPE": "U",
    "NORAD_CAT_ID": 40367,
    "ELEMENT_SET_NO": 999,
    "REV_AT_EPOCH": 3837,
    "BSTAR": 0,
    "MEAN_MOTION_DOT": -2.94e-06,
    "MEAN_MOTION_DDOT": 0
  },
  {
    "OBJECT_NAME": "METEOSAT-11 (MSG-4)",
    "OBJECT_ID": "2015-034A",
    "EPOCH": "2025-06-21T18:56:50.663328",
    "MEAN_MOTION": 1.00263992,
    "ECCENTRICITY": 4.41e-05,
    "INCLINATION": 2.3004,
    "RA_OF_ASC_NODE": 72.3827,
    "ARG_OF_PERICENTER": 89.9944,
    "MEAN_ANOMALY": 41.6086,
    "EPHEMERIS_TYPE": 0,
    "CLASSIFICATION_TYPE": "U",
    "NORAD_CAT_ID": 40732,
    "ELEMENT_SET_NO": 999,
    "REV_AT_EPOCH": 3639,
    "BSTAR": 0,
    "MEAN_MOTION_DOT": 7e-07,
    "MEAN_MOTION_DDOT": 0
  },
  {
    "OBJECT_NAME": "ELEKTRO-L 2",
    "OBJECT_ID": "2015-074A",
    "EPOCH": "2025-06-21T20:33:01.581984",
    "MEAN_MOTION": 1.00271707,
    "ECCENTRICITY": 0.0001137,
    "INCLINATION": 5.7836,
    "RA_OF_ASC_NODE": 74.9784,
    "ARG_OF_PERICENTER": 199.3832,
    "MEAN_ANOMALY": 289.7099,
    "EPHEMERIS_TYPE": 0,
    "CLASSIFICATION_TYPE": "U",
    "NORAD_CAT_ID": 41105,
    "ELEMENT_SET_NO": 999,
    "REV_AT_EPOCH": 3490,
    "BSTAR": 0,
    "MEAN_MOTION_DOT": -1.12e-06,
    "MEAN_MOTION_DDOT": 0
  },
  {
    "OBJECT_NAME": "INSAT-3DR",
    "OBJECT_ID": "2016-054A",
    "EPOCH": "2025-06-21T12:23:58.973856",
    "MEAN_MOTION": 1.00270815,
    "ECCENTRICITY": 0.0010245,
    "INCLINATION": 0.1112,
    "RA_OF_ASC_NODE": 92.0731,
    "ARG_OF_PERICENTER": 175.8016,
    "MEAN_ANOMALY": 262.0593,
    "EPHEMERIS_TYPE": 0,
    "CLASSIFICATION_TYPE": "U",
    "NORAD_CAT_ID": 41752,
    "ELEMENT_SET_NO": 999,
    "REV_AT_EPOCH": 3220,
    "BSTAR": 0,
    "MEAN_MOTION_DOT": -6.7e-07,
    "MEAN_MOTION_DDOT": 0
  },
  {
    "OBJECT_NAME": "HIMAWARI-9",
    "OBJECT_ID": "2016-064A",
    "EPOCH": "2025-06-21T12:06:55.431936",
    "MEAN_MOTION": 1.00271797,
    "ECCENTRICITY": 9.56e-05,
    "INCLINATION": 0.016,
    "RA_OF_ASC_NODE": 273.6612,
    "ARG_OF_PERICENTER": 194.1217,
    "MEAN_ANOMALY": 124.6514,
    "EPHEMERIS_TYPE": 0,
    "CLASSIFICATION_TYPE": "U",
    "NORAD_CAT_ID": 41836,
    "ELEMENT_SET_NO": 999,
    "REV_AT_EPOCH": 3159,
    "BSTAR": 0,
    "MEAN_MOTION_DOT": -2.65e-06,
    "MEAN_MOTION_DDOT": 0
  },
  {
    "OBJECT_NAME": "GOES 16",
    "OBJECT_ID": "2016-071A",
    "EPOCH": "2025-06-21T11:33:03.843072",
    "MEAN_MOTION": 1.00270662,
    "ECCENTRICITY": 6.87e-05,
    "INCLINATION": 0.0579,
    "RA_OF_ASC_NODE": 246.9634,
    "ARG_OF_PERICENTER": 260.9005,
    "MEAN_ANOMALY": 190.5912,
    "EPHEMERIS_TYPE": 0,
    "CLASSIFICATION_TYPE": "U",
    "NORAD_CAT_ID": 41866,
    "ELEMENT_SET_NO": 999,
    "REV_AT_EPOCH": 3148,
    "BSTAR": 0,
    "MEAN_MOTION_DOT": -8e-07,
    "MEAN_MOTION_DDOT": 0
  },
  {
    "OBJECT_NAME": "FENGYUN 4A",
    "OBJECT_ID": "2016-077A",
    "EPOCH": "2025-06-21T21:03:38.561760",
    "MEAN_MOTION": 1.0027007,
    "ECCENTRICITY": 0.0007237,
    "INCLINATION": 1.4033,
    "RA_OF_ASC_NODE": 84.2393,
    "ARG_OF_PERICENTER": 167.468,
    "MEAN_ANOMALY": 98.2967,
    "EPHEMERIS_TYPE": 0,
    "CLASSIFICATION_TYPE": "U",
    "NORAD_CAT_ID": 41882,
    "ELEMENT_SET_NO": 999,
    "REV_AT_EPOCH": 3136,
    "BSTAR": 0,
    "MEAN_MOTION_DOT": -3.48e-06,
    "MEAN_MOTION_DDOT": 0
  },
  {
    "OBJECT_NAME": "CYGFM05",
    "OBJECT_ID": "2016-078A",
    "EPOCH": "2025-06-21T20:01:01.062912",
    "MEAN_MOTION": 15.40910412,
    "ECCENTRICITY": 0.0009807,
    "INCLINATION": 34.9605,
    "RA_OF_ASC_NODE": 96.3065,
    "ARG_OF_PERICENTER": 349.4879,
    "MEAN_ANOMALY": 10.5635,
    "EPHEMERIS_TYPE": 0,
    "CLASSIFICATION_TYPE": "U",
    "NORAD_CAT_ID": 41884,
    "ELEMENT_SET_NO": 999,
    "REV_AT_EPOCH": 47297,
    "BSTAR": 0.00024217,
    "MEAN_MOTION_DOT": 0.00010229,
    "MEAN_MOTION_DDOT": 0
  }
]