METEOSAT-10 (MSG-3)     
1 38552U 12035B   25172.33655625  .00000003  00000+0  00000+0 0  9997
2 38552   3.8167  62.0676 0000606  65.1811 263.9190  1.00275636 47237
METOP-B                 
1 38771U 12049A   25172.85613384  .00000077  00000+0  54743-4 0  9997
2 38771  98.5762 226.7277 0000766  54.6568 305.4681 14.21466299662062
INSAT-3D                
1 39216U 13038B   25172.86017024 -.00000331  00000+0  00000+0 0  9997
2 39216   0.9939  87.4808 0001086   0.1335 261.8618  1.00268249 43691
FENGYUN 3C              
1 39260U 13052A   25172.87567648  .00000070  00000+0  56770-4 0  9994
2 39260  98.4546 159.2331 0014397 345.7543  14.3224 14.15630582607652
METEOR-M 2              
1 40069U 14037A   25172.86966882  .00000082  00000+0  56733-4 0  9991
2 40069  98.4681 157.3170 0006039  15.8864 344.2502 14.21302654568132
HIMAWARI-8              
1 40267U 14060A   25172.50480825 -.00000266  00000+0  00000+0 0  9992
2 40267   0.0294  96.9468 0000931  51.4905  83.8917  1.00269944 39132
FENGYUN 2G              
1 40367U 14090A   25171.80796262 -.00000294  00000+0  00000+0 0  9994
2 40367   4.7228  77.2274 0003960 143.8161  78.7621  1.00271345 38371
METEOSAT-11 (MSG-4)     
1 40732U 15034A   25172.78947527  .00000070  00000+0  00000+0 0  9990
2 40732   2.3004  72.3827 0000441  89.9944  41.6086  1.00263992 36396
ELEKTRO-L 2             
1 41105U 15074A   25172.85626831 -.00000112  00000+0  00000+0 0  9997
2 41105   5.7836  74.9784 0001137 199.3832 289.7099  1.00271707 34903
INSAT-3DR               
1 41752U 16054A   25172.51665479 -.00000067  00000+0  00000+0 0  9997
2 41752   0.1112  92.0731 0010245 175.8016 262.0593  1.00270815 32206
HIMAWARI-9              
1 41836U 16064A   25172.50480824 -.00000265  00000+0  00000+0 0  9999
2 41836   0.0160 273.6612 0000956 194.1217 124.6514  1.00271797 31598
GOES 16                 
1 41866U 16071A   25172.48129448 -.00000080  00000+0  00000+0 0  9994
2 41866   0.0579 246.9634 0000687 260.9005 190.5912  1.00270662 31482
FENGYUN 4A              
1 41882U 16077A   25172.87752965 -.00000348  00000+0  00000+0 0  9994
2 41882   1.4033  84.2393 0007237 167.4680  98.2967  1.00270070 31367
CYGFM05                 
1 41884U 16078A   25172.83404008  .00010229  00000+0  24217-3 0  9993
2 41884  34.9605  96.3065 0009807 349.4879  10.5635 15.40910412472977
